{
    "links": {
        "self": "http://www.neowsapp.com/rest/v1/neo/3744831?api_key=iIulBulltgU6a56xZRHN4H3l9WmuAYTsLGpBGhQ2"
    },
    "id": "3744831",
    "neo_reference_id": "3744831",
    "name": "(2016 DT1)",
    "designation": "2016 DT1",
    "nasa_jpl_url": "http://ssd.jpl.nasa.gov/sbdb.cgi?sstr=3744831",
    "absolute_magnitude_h": 21.7,
    "estimated_diameter": {
        "kilometers": {
            "estimated_diameter_min": 0.1214940408,
            "estimated_diameter_max": 0.2716689341
        },
        "meters": {
            "estimated_diameter_min": 121.4940407996,
            "estimated_diameter_max": 271.6689340891
        },
        "miles": {
            "estimated_diameter_min": 0.0754928736,
            "estimated_diameter_max": 0.1688071972
        },
        "feet": {
            "estimated_diameter_min": 398.6025088171,
            "estimated_diameter_max": 891.3023057169
        }
    },
    "is_potentially_hazardous_asteroid": false,
    "close_approach_data": [
        {
            "close_approach_date": "2015-09-12",
            "close_approach_date_full": "2015-Sep-12 08:11",
            "epoch_date_close_approach": 1442045460000,
            "relative_velocity": {
                "kilometers_per_second": "15.1089123785",
                "kilometers_per_hour": "54392.0845624218",
                "miles_per_hour": "33797.1260993559"
            },
            "miss_distance": {
                "astronomical": "0.4531167831",
                "lunar": "176.2624286259",
                "kilometers": "67785305.613011997",
                "miles": "42119835.7851876786"
            },
            "orbiting_body": "Earth"
        },
        {
            "close_approach_date": "2016-02-05",
            "close_approach_date_full": "2016-Feb-05 22:13",
            "epoch_date_close_approach": 1454710380000,
            "relative_velocity": {
                "kilometers_per_second": "17.3641444115",
                "kilometers_per_hour": "62510.9198814562",
                "miles_per_hour": "38841.8546341192"
            },
            "miss_distance": {
                "astronomical": "0.2841193409",
                "lunar": "110.5224236101",
                "kilometers": "42503648.224443883",
                "miles": "26410542.3335482654"
            },
            "orbiting_body": "Earth"
        }
    ],
    "orbital_data": {
        "orbit_id": "5",
        "orbit_determination_date": "2017-04-06 08:28:03",
        "first_observation_date": "2016-02-26",
        "last_observation_date": "2016-03-03",
        "data_arc_in_days": 6,
        "observations_used": 54,
        "orbit_uncertainty": "9",
        "minimum_orbit_intersection": ".135345",
        "jupiter_tisserand_invariant": "3.926",
        "epoch_osculation": "2457447.5",
        "eccentricity": ".4999319718001509",
        "semi_major_axis": "1.691846093260271",
        "inclination": "30.51600670828327",
        "ascending_node_longitude": "154.3918384210539",
        "orbital_period": "803.7846463212006",
        "perihelion_distance": ".8460381398742814",
        "perihelion_argument": "262.8359101846358",
        "aphelion_distance": "2.53765404664626",
        "perihelion_time": "2457354.039695695673",
        "mean_anomaly": "41.85910953082892",
        "mean_motion": ".4478811602680705",
        "equinox": "J2000",
        "orbit_class": {
            "orbit_class_type": "APO",
            "orbit_class_description": "Near-Earth asteroid orbits which cross the Earth’s orbit similar to that of 1862 Apollo",
            "orbit_class_range": "a (semi-major axis) > 1.0 AU; q (perihelion) < 1.017 AU"
        }
    },
    "is_sentry_object": false
}